EUTELSAT QUANTUM        
1 49056U 21069B   25283.92817763  .00000122  00000+0  00000+0 0  9998
2 49056   0.0073 263.9598 0002900 326.7884 170.8943  1.00273115 15421
EUTELSAT KONNECT VHTS   
1 53765U 22110A   25283.84792394  .00000014  00000+0  00000+0 0  9991
2 53765   0.0562 100.0118 0002876  85.5099 142.1219  1.00274697  4326
EUTELSAT HOTBIRD 13F    
1 54048U 22134A   25283.84991728  .00000084  00000+0  00000+0 0  9991
2 54048   0.0548 281.6963 0001944  73.7696 343.2144  1.00272987 10874
EUTELSAT HOTBIRD 13G    
1 54225U 22146A   25283.77859029  .00000084  00000+0  00000+0 0  9990
2 54225   0.0471 232.4723 0002167 311.0174 129.4471  1.00272410  4962
EUTELSAT 10B            
1 54259U 22157A   25283.92072426  .00000064  00000+0  00000+0 0  9992
2 54259   0.0577  96.0664 0001924  47.5536 217.6140  1.00269026 10528
EUTELSAT 36D            
1 59346U 24059A   25283.92583762  .00000152  00000+0  00000+0 0  9995
2 59346   0.0154 229.4542 0000172 319.6702 199.8060  1.00272224  5643
